*******************************************************************************
Ephemeris / WWW_USER Wed Mar 14 15:34:07 2018 Pasadena, USA      / Horizons    
*******************************************************************************
Target body name: Uranus (799)                    {source: ura111}
Center body name: Solar System Barycenter (0)     {source: DE431mx}
Center-site name: BODY CENTER
*******************************************************************************
Start time      : A.D. 2000-Jan-01 00:00:00.0000 TDB
Stop  time      : A.D. 2001-Jan-01 00:00:00.0000 TDB
Step-size       : 7200 minutes
*******************************************************************************
Center geodetic : 0.00000000,0.00000000,0.0000000 {E-lon(deg),Lat(deg),Alt(km)}
Center cylindric: 0.00000000,0.00000000,0.0000000 {E-lon(deg),Dxy(km),Dz(km)}
Center radii    : (undefined)                                                  
Output units    : AU-D                                                         
Output type     : GEOMETRIC cartesian states
Output format   : 2 (position and velocity)
Reference frame : ICRF/J2000.0                                                 
Coordinate systm: Ecliptic and Mean Equinox of Reference Epoch                 
*******************************************************************************
JDTDB
   X     Y     Z
   VX    VY    VZ
*******************************************************************************
$$SOE
2451544.500000000 = A.D. 2000-Jan-01 00:00:00.0000 TDB 
   1.442337843936191E+01 -1.373845030140273E+01 -2.379221201389048E-01
   2.683840344076701E-03  2.665016541217002E-03 -2.484232267336756E-05
2451549.500000000 = A.D. 2000-Jan-06 00:00:00.0000 TDB 
   1.443679031163043E+01 -1.372511873849129E+01 -2.380467581592973E-01
   2.680913051581406E-03  2.667640764041342E-03 -2.477272698402689E-05
2451554.500000000 = A.D. 2000-Jan-11 00:00:00.0000 TDB 
   1.445018891380843E+01 -1.371177426300565E+01 -2.381703504942371E-01
   2.678429815121459E-03  2.670148510022393E-03 -2.482046535321932E-05
2451559.500000000 = A.D. 2000-Jan-16 00:00:00.0000 TDB 
   1.446357387715557E+01 -1.369841703098455E+01 -2.382944653152141E-01
   2.675509849835602E-03  2.672767649358558E-03 -2.472619099753569E-05
2451564.500000000 = A.D. 2000-Jan-21 00:00:00.0000 TDB 
   1.447694523668682E+01 -1.368504691617075E+01 -2.384180247370469E-01
   2.672827211689654E-03  2.675326086139494E-03 -2.467729626247324E-05
2451569.500000000 = A.D. 2000-Jan-26 00:00:00.0000 TDB 
   1.449030304908459E+01 -1.367166395151721E+01 -2.385410784642971E-01
   2.670295752143369E-03  2.677858198068079E-03 -2.455245703945550E-05
2451574.500000000 = A.D. 2000-Jan-31 00:00:00.0000 TDB 
   1.450364757291957E+01 -1.365826834755507E+01 -2.386645909911408E-01
   2.667375455582519E-03  2.680435406342485E-03 -2.469485581477358E-05
2451579.500000000 = A.D. 2000-Feb-05 00:00:00.0000 TDB 
   1.451697804110618E+01 -1.364485975643242E+01 -2.387871761263314E-01
   2.664828544663211E-03  2.682970650039288E-03 -2.452687538477657E-05
2451584.500000000 = A.D. 2000-Feb-10 00:00:00.0000 TDB 
   1.453029536967179E+01 -1.363143856364574E+01 -2.389100392798198E-01
   2.661947947382860E-03  2.685548811049737E-03 -2.455487967389859E-05
2451589.500000000 = A.D. 2000-Feb-15 00:00:00.0000 TDB 
   1.454359886907634E+01 -1.361800454274631E+01 -2.390325143595466E-01
   2.659274620242862E-03  2.688089544447645E-03 -2.449564089962258E-05
2451594.500000000 = A.D. 2000-Feb-20 00:00:00.0000 TDB 
   1.455688854852737E+01 -1.360455770680445E+01 -2.391545808920425E-01
   2.656639945468255E-03  2.690639451078636E-03 -2.429743552778521E-05
2451599.500000000 = A.D. 2000-Feb-25 00:00:00.0000 TDB 
   1.457016531214602E+01 -1.359109833442161E+01 -2.392766902353798E-01
   2.653864718356761E-03  2.693151074002888E-03 -2.456090339801613E-05
2451604.500000000 = A.D. 2000-Mar-01 00:00:00.0000 TDB 
   1.458342755668091E+01 -1.357762604157578E+01 -2.393984925632657E-01
   2.651129484856555E-03  2.695726810525816E-03 -2.428660477009004E-05
2451609.500000000 = A.D. 2000-Mar-06 00:00:00.0000 TDB 
   1.459667679866017E+01 -1.356414117894291E+01 -2.395200116583207E-01
   2.648354602858708E-03  2.698259883880090E-03 -2.435433340539430E-05
2451614.500000000 = A.D. 2000-Mar-11 00:00:00.0000 TDB 
   1.460991217917925E+01 -1.355064358949511E+01 -2.396413476507735E-01
   2.645696439591082E-03  2.700782467210154E-03 -2.428694813881277E-05
2451619.500000000 = A.D. 2000-Mar-16 00:00:00.0000 TDB 
   1.462313360077093E+01 -1.353713327427103E+01 -2.397625436025586E-01
   2.642907843588687E-03  2.703346836332569E-03 -2.411045487069136E-05
2451624.500000000 = A.D. 2000-Mar-21 00:00:00.0000 TDB 
   1.463634202482609E+01 -1.352361039724752E+01 -2.398831645905999E-01
   2.640323821227638E-03  2.705806550795433E-03 -2.433089731178304E-05
2451629.500000000 = A.D. 2000-Mar-26 00:00:00.0000 TDB 
   1.464953605785323E+01 -1.351007480695915E+01 -2.400041757877465E-01
   2.637382990902362E-03  2.708404225098117E-03 -2.410676668492193E-05
2451634.500000000 = A.D. 2000-Mar-31 00:00:00.0000 TDB 
   1.466271676525794E+01 -1.349652658850077E+01 -2.401244157641033E-01
   2.634710922576154E-03  2.710904566986155E-03 -2.412955208992194E-05
2451639.500000000 = A.D. 2000-Apr-05 00:00:00.0000 TDB 
   1.467588370482752E+01 -1.348296575662426E+01 -2.402445650285152E-01
   2.632058832920250E-03  2.713414933545794E-03 -2.402969238739635E-05
2451644.500000000 = A.D. 2000-Apr-10 00:00:00.0000 TDB 
   1.468903679435558E+01 -1.346939234053987E+01 -2.403648329566880E-01
   2.629162673812655E-03  2.715966284643970E-03 -2.399239430135419E-05
2451649.500000000 = A.D. 2000-Apr-15 00:00:00.0000 TDB 
   1.470217632747214E+01 -1.345580626653311E+01 -2.404841395258325E-01
   2.626676732684307E-03  2.718417691317773E-03 -2.401076332508034E-05
2451654.500000000 = A.D. 2000-Apr-20 00:00:00.0000 TDB 
   1.471530206269435E+01 -1.344220773052621E+01 -2.406041285584509E-01
   2.623633758119096E-03  2.720995642171182E-03 -2.396533712181919E-05
2451659.500000000 = A.D. 2000-Apr-25 00:00:00.0000 TDB 
   1.472841389791626E+01 -1.342859650786213E+01 -2.407232450717647E-01
   2.621008660592207E-03  2.723485123338640E-03 -2.388121409158725E-05
2451664.500000000 = A.D. 2000-Apr-30 00:00:00.0000 TDB 
   1.474151205111779E+01 -1.341497276406200E+01 -2.408422223049298E-01
   2.618321357392333E-03  2.725990985103328E-03 -2.375068770974013E-05
2451669.500000000 = A.D. 2000-May-05 00:00:00.0000 TDB 
   1.475459662530956E+01 -1.340133658079090E+01 -2.409613518375806E-01
   2.615453318444378E-03  2.728497112445231E-03 -2.387850709847230E-05
2451674.500000000 = A.D. 2000-May-10 00:00:00.0000 TDB 
   1.476766693841180E+01 -1.338768768710085E+01 -2.410796637297331E-01
   2.612870404242986E-03  2.730984695757605E-03 -2.367314711372365E-05
2451679.500000000 = A.D. 2000-May-15 00:00:00.0000 TDB 
   1.478072405623283E+01 -1.337402649793166E+01 -2.411983354685575E-01
   2.609904068244089E-03  2.733505135637255E-03 -2.380486024510433E-05
2451684.500000000 = A.D. 2000-May-20 00:00:00.0000 TDB 
   1.479376681767869E+01 -1.336035264948532E+01 -2.413164599320527E-01
   2.607231640797214E-03  2.736002816777691E-03 -2.361842041494570E-05
2451689.500000000 = A.D. 2000-May-25 00:00:00.0000 TDB 
   1.480679587931582E+01 -1.334666634111904E+01 -2.414343330053795E-01
   2.604489427432669E-03  2.738503953111549E-03 -2.349333107404971E-05
2451694.500000000 = A.D. 2000-May-30 00:00:00.0000 TDB 
   1.481981156082787E+01 -1.333296768237960E+01 -2.415521101237761E-01
   2.601750794501797E-03  2.740956137976210E-03 -2.368903933220312E-05
2451699.500000000 = A.D. 2000-Jun-04 00:00:00.0000 TDB 
   1.483281258679572E+01 -1.331925639163154E+01 -2.416696616514762E-01
   2.598936658985812E-03  2.743488854672990E-03 -2.340424252426833E-05
2451704.500000000 = A.D. 2000-Jun-09 00:00:00.0000 TDB 
   1.484580056624239E+01 -1.330553281937634E+01 -2.417868653909546E-01
   2.596153926427063E-03  2.745948941215121E-03 -2.356884293806714E-05
2451709.500000000 = A.D. 2000-Jun-14 00:00:00.0000 TDB 
   1.485877412023878E+01 -1.329179672219152E+01 -2.419040126173223E-01
   2.593383317404149E-03  2.748453908636228E-03 -2.336248904917782E-05
2451714.500000000 = A.D. 2000-Jun-19 00:00:00.0000 TDB 
   1.487173385641846E+01 -1.327804821300089E+01 -2.420208487867063E-01
   2.590590217932596E-03  2.750945937498500E-03 -2.327164564420362E-05
2451719.500000000 = A.D. 2000-Jun-24 00:00:00.0000 TDB 
   1.488468013569136E+01 -1.326428736336325E+01 -2.421372105539034E-01
   2.587980904400098E-03  2.753361710192048E-03 -2.340504968213828E-05
2451724.500000000 = A.D. 2000-Jun-29 00:00:00.0000 TDB 
   1.489761191494922E+01 -1.325051408687722E+01 -2.422539829580377E-01
   2.584955696052741E-03  2.755911001026376E-03 -2.321968511533209E-05
2451729.500000000 = A.D. 2000-Jul-04 00:00:00.0000 TDB 
   1.491053021611448E+01 -1.323672843161300E+01 -2.423698085030055E-01
   2.582316386125444E-03  2.758339554906926E-03 -2.326544920338963E-05
2451734.500000000 = A.D. 2000-Jul-09 00:00:00.0000 TDB 
   1.492343438138126E+01 -1.322293043751996E+01 -2.424858801276956E-01
   2.579478573602623E-03  2.760836435406585E-03 -2.311042831326511E-05
2451739.500000000 = A.D. 2000-Jul-14 00:00:00.0000 TDB 
   1.493632461073208E+01 -1.320912009376933E+01 -2.426016822979940E-01
   2.576648761072851E-03  2.763310352725721E-03 -2.308558154826780E-05
2451744.500000000 = A.D. 2000-Jul-19 00:00:00.0000 TDB 
   1.494920099952525E+01 -1.319529737194710E+01 -2.427167684472240E-01
   2.574084283091350E-03  2.765722996275674E-03 -2.305981594154685E-05
2451749.500000000 = A.D. 2000-Jul-24 00:00:00.0000 TDB 
   1.496206345991357E+01 -1.318146246370542E+01 -2.428325059235441E-01
   2.570980307110420E-03  2.768244448790324E-03 -2.307754862211328E-05
